start=new Date('2023-01-30T00:00:00.000Z').valueOf();
sats=[{"ARG_OF_PERICENTER":"271.1366","PERIAPSIS":"570.085","DECAY_DATE":null,"EPOCH":"2023-01-29T20:00:18.386496","NORAD_CAT_ID":"49178","LAUNCH_DATE":"2021-09-14","TLE_LINE2":"2 49178  69.9985 275.8344 0002830 271.1366  88.9469 14.98331982 77140","OBJECT_ID":"2021-082BA","REV_AT_EPOCH":"7714","SEMIMAJOR_AXIS":"6950.187","RA_OF_ASC_NODE":"275.8344","TIME_SYSTEM":"UTC","MEAN_ELEMENT_THEORY":"SGP4","CENTER_NAME":"EARTH","FILE":"3764951","SITE":"AFWTR","INCLINATION":"69.9985","REF_FRAME":"TEME","APOAPSIS":"574.019","MEAN_MOTION_DDOT":"0.0000000000000","RCS_SIZE":"LARGE","OBJECT_TYPE":"PAYLOAD","EPHEMERIS_TYPE":"0","MEAN_ANOMALY":"88.9469","CLASSIFICATION_TYPE":"U","TLE_LINE1":"1 49178U 21082BA  23029.83354614  .00000895  00000-0  82820-4 0  9998","OBJECT_NAME":"STARLINK-3086","ECCENTRICITY":"0.00028300","ELEMENT_SET_NO":"999","GP_ID":"223933159","BSTAR":"0.00008282000000","MEAN_MOTION":"14.98331982","MEAN_MOTION_DOT":"0.00000895","PERIOD":"96.107","COUNTRY_CODE":"US"},{"OBJECT_TYPE":"PAYLOAD","RCS_SIZE":"LARGE","MEAN_MOTION_DDOT":"0.0000000000000","ECCENTRICITY":"0.00027540","OBJECT_NAME":"STARLINK-3043","TLE_LINE1":"1 49179U 21082BB  23029.86208655  .00000621  00000-0  59862-4 0  9992","CLASSIFICATION_TYPE":"U","MEAN_ANOMALY":"89.3222","EPHEMERIS_TYPE":"0","MEAN_MOTION":"14.98333698","BSTAR":"0.00005986200000","ELEMENT_SET_NO":"999","GP_ID":"223954979","COUNTRY_CODE":"US","PERIOD":"96.107","MEAN_MOTION_DOT":"0.00000621","DECAY_DATE":null,"PERIAPSIS":"570.132","ARG_OF_PERICENTER":"270.7621","REV_AT_EPOCH":"7697","SEMIMAJOR_AXIS":"6950.181","TLE_LINE2":"2 49179  69.9983 235.7606 0002754 270.7621  89.3222 14.98333698 76977","OBJECT_ID":"2021-082BB","LAUNCH_DATE":"2021-09-14","NORAD_CAT_ID":"49179","EPOCH":"2023-01-29T20:41:24.277920","SITE":"AFWTR","FILE":"3765015","CENTER_NAME":"EARTH","TIME_SYSTEM":"UTC","MEAN_ELEMENT_THEORY":"SGP4","RA_OF_ASC_NODE":"235.7606","APOAPSIS":"573.961","INCLINATION":"69.9983","REF_FRAME":"TEME"},{"EPOCH":"2023-01-29T20:15:56.800224","LAUNCH_DATE":"2021-09-14","NORAD_CAT_ID":"49180","REV_AT_EPOCH":"7765","SEMIMAJOR_AXIS":"6950.184","TLE_LINE2":"2 49180  69.9997 255.8046 0002752 271.2378  88.8466 14.98332736 77650","OBJECT_ID":"2021-082BC","ARG_OF_PERICENTER":"271.2378","PERIAPSIS":"570.137","DECAY_DATE":null,"APOAPSIS":"573.962","INCLINATION":"69.9997","REF_FRAME":"TEME","TIME_SYSTEM":"UTC","CENTER_NAME":"EARTH","MEAN_ELEMENT_THEORY":"SGP4","RA_OF_ASC_NODE":"255.8046","FILE":"3765015","SITE":"AFWTR","CLASSIFICATION_TYPE":"U","MEAN_ANOMALY":"88.8466","EPHEMERIS_TYPE":"0","OBJECT_NAME":"STARLINK-3050","TLE_LINE1":"1 49180U 21082BC  23029.84440741  .00000512  00000-0  50713-4 0  9991","ECCENTRICITY":"0.00027520","MEAN_MOTION_DDOT":"0.0000000000000","RCS_SIZE":"LARGE","OBJECT_TYPE":"PAYLOAD","MEAN_MOTION_DOT":"0.00000512","PERIOD":"96.107","COUNTRY_CODE":"US","GP_ID":"223955229","ELEMENT_SET_NO":"999","MEAN_MOTION":"14.98332736","BSTAR":"0.00005071300000"},{"ECCENTRICITY":"0.00028890","TLE_LINE1":"1 49181U 21082BD  23029.94799803  .00001574  00000-0  13966-3 0  9996","OBJECT_NAME":"STARLINK-3059","MEAN_ANOMALY":"89.8767","EPHEMERIS_TYPE":"0","CLASSIFICATION_TYPE":"U","OBJECT_TYPE":"PAYLOAD","RCS_SIZE":"LARGE","MEAN_MOTION_DDOT":"0.0000000000000","COUNTRY_CODE":"US","PERIOD":"96.107","MEAN_MOTION_DOT":"0.00001574","MEAN_MOTION":"14.98325021","BSTAR":"0.00013966000000","ELEMENT_SET_NO":"999","GP_ID":"223955981","OBJECT_ID":"2021-082BD","TLE_LINE2":"2 49181  69.9995 275.5357 0002889 270.2061  89.8767 14.98325021 77195","REV_AT_EPOCH":"7719","SEMIMAJOR_AXIS":"6950.208","NORAD_CAT_ID":"49181","LAUNCH_DATE":"2021-09-14","EPOCH":"2023-01-29T22:45:07.029792","DECAY_DATE":null,"PERIAPSIS":"570.065","ARG_OF_PERICENTER":"270.2061","INCLINATION":"69.9995","REF_FRAME":"TEME","APOAPSIS":"574.081","SITE":"AFWTR","FILE":"3765015","RA_OF_ASC_NODE":"275.5357","CENTER_NAME":"EARTH","TIME_SYSTEM":"UTC","MEAN_ELEMENT_THEORY":"SGP4"},{"COUNTRY_CODE":"US","MEAN_MOTION_DOT":"-0.00000456","PERIOD":"95.437","BSTAR":"-0.00001059900000","MEAN_MOTION":"15.08841769","GP_ID":"223957005","ELEMENT_SET_NO":"999","ECCENTRICITY":"0.00009980","CLASSIFICATION_TYPE":"U","EPHEMERIS_TYPE":"0","MEAN_ANOMALY":"272.5316","OBJECT_NAME":"STARLINK-3151","TLE_LINE1":"1 49408U 21104A   23029.95326513 -.00000456  00000-0 -10599-4 0  9998","RCS_SIZE":"LARGE","OBJECT_TYPE":"PAYLOAD","MEAN_MOTION_DDOT":"0.0000000000000","APOAPSIS":"540.430","REF_FRAME":"TEME","INCLINATION":"53.2154","FILE":"3765015","SITE":"AFETR","CENTER_NAME":"EARTH","MEAN_ELEMENT_THEORY":"SGP4","TIME_SYSTEM":"UTC","RA_OF_ASC_NODE":"283.1612","LAUNCH_DATE":"2021-11-13","NORAD_CAT_ID":"49408","SEMIMAJOR_AXIS":"6917.875","REV_AT_EPOCH":"6732","TLE_LINE2":"2 49408  53.2154 283.1612 0000998  87.5790 272.5316 15.08841769 67325","OBJECT_ID":"2021-104A","EPOCH":"2023-01-29T22:52:42.107232","DECAY_DATE":null,"PERIAPSIS":"539.050","ARG_OF_PERICENTER":"87.5790"},{"COUNTRY_CODE":"US","PERIOD":"95.439","MEAN_MOTION_DOT":"-0.00002370","BSTAR":"-0.00013094000000","MEAN_MOTION":"15.08822470","GP_ID":"223957757","ELEMENT_SET_NO":"999","ECCENTRICITY":"0.00013690","OBJECT_NAME":"STARLINK-3075","TLE_LINE1":"1 49409U 21104B   23029.83551641 -.00002370  00000-0 -13094-3 0  9997","CLASSIFICATION_TYPE":"U","EPHEMERIS_TYPE":"0","MEAN_ANOMALY":"281.1569","OBJECT_TYPE":"PAYLOAD","RCS_SIZE":"LARGE","MEAN_MOTION_DDOT":"0.0000000000000","APOAPSIS":"540.746","INCLINATION":"53.2129","REF_FRAME":"TEME","SITE":"AFETR","FILE":"3765015","TIME_SYSTEM":"UTC","CENTER_NAME":"EARTH","MEAN_ELEMENT_THEORY":"SGP4","RA_OF_ASC_NODE":"283.6868","SEMIMAJOR_AXIS":"6917.934","REV_AT_EPOCH":"6731","TLE_LINE2":"2 49409  53.2129 283.6868 0001369  78.9578 281.1569 15.08822470 67310","OBJECT_ID":"2021-104B","LAUNCH_DATE":"2021-11-13","NORAD_CAT_ID":"49409","EPOCH":"2023-01-29T20:03:08.617824","DECAY_DATE":null,"ARG_OF_PERICENTER":"78.9578","PERIAPSIS":"538.852"},{"EPOCH":"2023-01-29T23:03:17.971488","REV_AT_EPOCH":"6732","SEMIMAJOR_AXIS":"6917.872","OBJECT_ID":"2021-104C","TLE_LINE2":"2 49410  53.2146 283.1220 0001261  87.4599 272.6538 15.08842781 67326","LAUNCH_DATE":"2021-11-13","NORAD_CAT_ID":"49410","PERIAPSIS":"538.865","ARG_OF_PERICENTER":"87.4599","DECAY_DATE":null,"APOAPSIS":"540.609","REF_FRAME":"TEME","INCLINATION":"53.2146","MEAN_ELEMENT_THEORY":"SGP4","CENTER_NAME":"EARTH","TIME_SYSTEM":"UTC","RA_OF_ASC_NODE":"283.1220","SITE":"AFETR","FILE":"3765015","OBJECT_NAME":"STARLINK-3147","TLE_LINE1":"1 49410U 21104C   23029.96062467  .00004398  00000-0  29422-3 0  9998","CLASSIFICATION_TYPE":"U","EPHEMERIS_TYPE":"0","MEAN_ANOMALY":"272.6538","ECCENTRICITY":"0.00012610","MEAN_MOTION_DDOT":"0.0000000000000","OBJECT_TYPE":"PAYLOAD","RCS_SIZE":"LARGE","PERIOD":"95.437","MEAN_MOTION_DOT":"0.00004398","COUNTRY_CODE":"US","GP_ID":"223958507","ELEMENT_SET_NO":"999","BSTAR":"0.00029422000000","MEAN_MOTION":"15.08842781"},{"MEAN_MOTION":"15.08842092","BSTAR":"0.00031752000000","GP_ID":"223957255","ELEMENT_SET_NO":"999","COUNTRY_CODE":"US","PERIOD":"95.437","MEAN_MOTION_DOT":"0.00004769","OBJECT_TYPE":"PAYLOAD","RCS_SIZE":"LARGE","MEAN_MOTION_DDOT":"0.0000000000000","ECCENTRICITY":"0.00014750","TLE_LINE1":"1 49411U 21104D   23029.95418525  .00004769  00000-0  31752-3 0  9999","OBJECT_NAME":"STARLINK-3162","MEAN_ANOMALY":"271.0280","EPHEMERIS_TYPE":"0","CLASSIFICATION_TYPE":"U","SITE":"AFETR","FILE":"3765015","RA_OF_ASC_NODE":"273.1485","TIME_SYSTEM":"UTC","MEAN_ELEMENT_THEORY":"SGP4","CENTER_NAME":"EARTH","INCLINATION":"53.2144","REF_FRAME":"TEME","APOAPSIS":"540.759","DECAY_DATE":null,"ARG_OF_PERICENTER":"89.0881","PERIAPSIS":"538.719","OBJECT_ID":"2021-104D","TLE_LINE2":"2 49411  53.2144 273.1485 0001475  89.0881 271.0280 15.08842092 67463","REV_AT_EPOCH":"6746","SEMIMAJOR_AXIS":"6917.874","NORAD_CAT_ID":"49411","LAUNCH_DATE":"2021-11-13","EPOCH":"2023-01-29T22:54:01.605600"},{"TIME_SYSTEM":"UTC","MEAN_ELEMENT_THEORY":"SGP4","CENTER_NAME":"EARTH","RA_OF_ASC_NODE":"283.1056","FILE":"3765015","SITE":"AFETR","APOAPSIS":"540.438","REF_FRAME":"TEME","INCLINATION":"53.2145","PERIAPSIS":"539.028","ARG_OF_PERICENTER":"106.6156","DECAY_DATE":null,"EPOCH":"2023-01-29T23:08:35.781792","LAUNCH_DATE":"2021-11-13","NORAD_CAT_ID":"49412","REV_AT_EPOCH":"6733","SEMIMAJOR_AXIS":"6917.868","TLE_LINE2":"2 49412  53.2145 283.1056 0001019 106.6156 253.4948 15.08843994 67338","OBJECT_ID":"2021-104E","GP_ID":"223957505","ELEMENT_SET_NO":"999","MEAN_MOTION":"15.08843994","BSTAR":"0.00009642400000","MEAN_MOTION_DOT":"0.00001247","PERIOD":"95.437","COUNTRY_CODE":"US","MEAN_MOTION_DDOT":"0.0000000000000","RCS_SIZE":"LARGE","OBJECT_TYPE":"PAYLOAD","CLASSIFICATION_TYPE":"U","EPHEMERIS_TYPE":"0","MEAN_ANOMALY":"253.4948","OBJECT_NAME":"STARLINK-3144","TLE_LINE1":"1 49412U 21104E   23029.96430303  .00001247  00000-0  96424-4 0  9995","ECCENTRICITY":"0.00010190"},{"MEAN_ANOMALY":"278.5329","EPHEMERIS_TYPE":"0","CLASSIFICATION_TYPE":"U","TLE_LINE1":"1 49413U 21104F   23029.95049424 -.00001884  00000-0 -10034-3 0  9996","OBJECT_NAME":"STARLINK-3157","ECCENTRICITY":"0.00011790","MEAN_MOTION_DDOT":"0.0000000000000","RCS_SIZE":"LARGE","OBJECT_TYPE":"PAYLOAD","MEAN_MOTION_DOT":"-0.00001884","PERIOD":"95.438","COUNTRY_CODE":"US","GP_ID":"223958257","ELEMENT_SET_NO":"999","MEAN_MOTION":"15.08838005","BSTAR":"-0.00010034000000","EPOCH":"2023-01-29T22:48:42.702336","NORAD_CAT_ID":"49413","LAUNCH_DATE":"2021-11-13","TLE_LINE2":"2 49413  53.2149 273.1663 0001179  81.5797 278.5329 15.08838005 67467","OBJECT_ID":"2021-104F","REV_AT_EPOCH":"6746","SEMIMAJOR_AXIS":"6917.886","ARG_OF_PERICENTER":"81.5797","PERIAPSIS":"538.936","DECAY_DATE":null,"REF_FRAME":"TEME","INCLINATION":"53.2149","APOAPSIS":"540.567","RA_OF_ASC_NODE":"273.1663","TIME_SYSTEM":"UTC","CENTER_NAME":"EARTH","MEAN_ELEMENT_THEORY":"SGP4","FILE":"3765015","SITE":"AFETR"}];
